{"fetched_at":"2026-07-06T18:35:41.435Z","source":"https://celestrak.org/NORAD/elements/gp.php?NAME=KINEIS&FORMAT=JSON","constellation":"kineis","records":[{"OBJECT_NAME":"KINEIS-1B","OBJECT_ID":"2024-114A","EPOCH":"2026-07-06T07:29:29.182848","CLASSIFICATION_TYPE":"U","MEAN_MOTION":14.8065717,"ECCENTRICITY":0.0003526,"INCLINATION":97.9826,"RA_OF_ASC_NODE":211.4063,"ARG_OF_PERICENTER":57.3821,"MEAN_ANOMALY":302.7731,"EPHEMERIS_TYPE":0,"NORAD_CAT_ID":60079,"ELEMENT_SET_NO":999,"REV_AT_EPOCH":11023,"BSTAR":0.00011130291,"MEAN_MOTION_DOT":0.00000802,"MEAN_MOTION_DDOT":0},{"OBJECT_NAME":"KINEIS-1C","OBJECT_ID":"2024-114C","EPOCH":"2026-07-06T06:40:37.134912","CLASSIFICATION_TYPE":"U","MEAN_MOTION":14.80659211,"ECCENTRICITY":0.00024794,"INCLINATION":97.9846,"RA_OF_ASC_NODE":211.2258,"ARG_OF_PERICENTER":105.781,"MEAN_ANOMALY":254.3675,"EPHEMERIS_TYPE":0,"NORAD_CAT_ID":60081,"ELEMENT_SET_NO":999,"REV_AT_EPOCH":11020,"BSTAR":0.00010597412,"MEAN_MOTION_DOT":0.00000761,"MEAN_MOTION_DDOT":0},{"OBJECT_NAME":"KINEIS-1D","OBJECT_ID":"2024-114D","EPOCH":"2026-07-06T07:01:07.248000","CLASSIFICATION_TYPE":"U","MEAN_MOTION":14.76354442,"ECCENTRICITY":0.00027875,"INCLINATION":97.9882,"RA_OF_ASC_NODE":207.2188,"ARG_OF_PERICENTER":111.8392,"MEAN_ANOMALY":248.3114,"EPHEMERIS_TYPE":0,"NORAD_CAT_ID":60082,"ELEMENT_SET_NO":999,"REV_AT_EPOCH":10994,"BSTAR":0.000093109604,"MEAN_MOTION_DOT":0.00000595,"MEAN_MOTION_DDOT":0},{"OBJECT_NAME":"KINEIS-1E","OBJECT_ID":"2024-114E","EPOCH":"2026-07-06T07:06:28.567872","CLASSIFICATION_TYPE":"U","MEAN_MOTION":14.8068252,"ECCENTRICITY":0.00037741,"INCLINATION":97.8942,"RA_OF_ASC_NODE":210.4116,"ARG_OF_PERICENTER":127.8841,"MEAN_ANOMALY":232.2713,"EPHEMERIS_TYPE":0,"NORAD_CAT_ID":60083,"ELEMENT_SET_NO":999,"REV_AT_EPOCH":11021,"BSTAR":0.00015200305,"MEAN_MOTION_DOT":0.00001117,"MEAN_MOTION_DDOT":0},{"OBJECT_NAME":"KINEIS-1A","OBJECT_ID":"2024-114F","EPOCH":"2026-07-06T07:54:32.262912","CLASSIFICATION_TYPE":"U","MEAN_MOTION":14.80672269,"ECCENTRICITY":0.00056667,"INCLINATION":97.8916,"RA_OF_ASC_NODE":210.5413,"ARG_OF_PERICENTER":83.4653,"MEAN_ANOMALY":276.7204,"EPHEMERIS_TYPE":0,"NORAD_CAT_ID":60084,"ELEMENT_SET_NO":999,"REV_AT_EPOCH":11022,"BSTAR":0.00011954379,"MEAN_MOTION_DOT":0.00000867,"MEAN_MOTION_DDOT":0},{"OBJECT_NAME":"KINEIS-3C","OBJECT_ID":"2024-172A","EPOCH":"2026-07-06T04:04:27.994944","CLASSIFICATION_TYPE":"U","MEAN_MOTION":14.72351358,"ECCENTRICITY":0.00028144,"INCLINATION":98.0431,"RA_OF_ASC_NODE":276.868,"ARG_OF_PERICENTER":96.4863,"MEAN_ANOMALY":263.6665,"EPHEMERIS_TYPE":0,"NORAD_CAT_ID":61220,"ELEMENT_SET_NO":999,"REV_AT_EPOCH":9586,"BSTAR":0.00036583461,"MEAN_MOTION_DOT":0.00002265,"MEAN_MOTION_DDOT":0},{"OBJECT_NAME":"KINEIS-3D","OBJECT_ID":"2024-172B","EPOCH":"2026-07-06T03:54:45.980352","CLASSIFICATION_TYPE":"U","MEAN_MOTION":14.72353313,"ECCENTRICITY":0.0002625,"INCLINATION":98.0428,"RA_OF_ASC_NODE":276.8715,"ARG_OF_PERICENTER":96.0255,"MEAN_ANOMALY":264.1252,"EPHEMERIS_TYPE":0,"NORAD_CAT_ID":61221,"ELEMENT_SET_NO":999,"REV_AT_EPOCH":9614,"BSTAR":0.0003661016,"MEAN_MOTION_DOT":0.00002267,"MEAN_MOTION_DDOT":0},{"OBJECT_NAME":"KINEIS-3E","OBJECT_ID":"2024-172C","EPOCH":"2026-07-06T05:08:05.443296","CLASSIFICATION_TYPE":"U","MEAN_MOTION":14.72320412,"ECCENTRICITY":0.00019056,"INCLINATION":98.0424,"RA_OF_ASC_NODE":276.9037,"ARG_OF_PERICENTER":95.6795,"MEAN_ANOMALY":264.4629,"EPHEMERIS_TYPE":0,"NORAD_CAT_ID":61222,"ELEMENT_SET_NO":999,"REV_AT_EPOCH":9615,"BSTAR":0.00035270847,"MEAN_MOTION_DOT":0.00002181,"MEAN_MOTION_DDOT":0},{"OBJECT_NAME":"KINEIS-3A","OBJECT_ID":"2024-172D","EPOCH":"2026-07-06T04:44:10.750560","CLASSIFICATION_TYPE":"U","MEAN_MOTION":14.72290048,"ECCENTRICITY":0.00027522,"INCLINATION":98.0419,"RA_OF_ASC_NODE":276.9858,"ARG_OF_PERICENTER":60.5422,"MEAN_ANOMALY":299.6059,"EPHEMERIS_TYPE":0,"NORAD_CAT_ID":61223,"ELEMENT_SET_NO":999,"REV_AT_EPOCH":9557,"BSTAR":0.00034818426,"MEAN_MOTION_DOT":0.00002151,"MEAN_MOTION_DDOT":0},{"OBJECT_NAME":"KINEIS-3B","OBJECT_ID":"2024-172E","EPOCH":"2026-07-06T04:19:02.370720","CLASSIFICATION_TYPE":"U","MEAN_MOTION":14.72276959,"ECCENTRICITY":0.00022971,"INCLINATION":98.0413,"RA_OF_ASC_NODE":276.9916,"ARG_OF_PERICENTER":48.5618,"MEAN_ANOMALY":311.5786,"EPHEMERIS_TYPE":0,"NORAD_CAT_ID":61224,"ELEMENT_SET_NO":999,"REV_AT_EPOCH":9614,"BSTAR":0.00034397207,"MEAN_MOTION_DOT":0.00002123,"MEAN_MOTION_DDOT":0},{"OBJECT_NAME":"KINEIS-5C","OBJECT_ID":"2024-219A","EPOCH":"2026-07-06T07:02:07.291680","CLASSIFICATION_TYPE":"U","MEAN_MOTION":14.72306419,"ECCENTRICITY":0.00034058,"INCLINATION":97.9059,"RA_OF_ASC_NODE":345.6163,"ARG_OF_PERICENTER":201.9861,"MEAN_ANOMALY":158.1201,"EPHEMERIS_TYPE":0,"NORAD_CAT_ID":62081,"ELEMENT_SET_NO":999,"REV_AT_EPOCH":8656,"BSTAR":0.00010725399,"MEAN_MOTION_DOT":0.0000063,"MEAN_MOTION_DDOT":0},{"OBJECT_NAME":"KINEIS-5D","OBJECT_ID":"2024-219B","EPOCH":"2026-07-06T07:41:50.726400","CLASSIFICATION_TYPE":"U","MEAN_MOTION":14.72482148,"ECCENTRICITY":0.00045327,"INCLINATION":97.917,"RA_OF_ASC_NODE":345.6964,"ARG_OF_PERICENTER":195.1926,"MEAN_ANOMALY":164.9146,"EPHEMERIS_TYPE":0,"NORAD_CAT_ID":62082,"ELEMENT_SET_NO":999,"REV_AT_EPOCH":8657,"BSTAR":0.00015367229,"MEAN_MOTION_DOT":0.00000927,"MEAN_MOTION_DDOT":0},{"OBJECT_NAME":"KINEIS-5E","OBJECT_ID":"2024-219C","EPOCH":"2026-07-06T08:05:50.312832","CLASSIFICATION_TYPE":"U","MEAN_MOTION":14.72291539,"ECCENTRICITY":0.00060344,"INCLINATION":97.9015,"RA_OF_ASC_NODE":345.7585,"ARG_OF_PERICENTER":192.0959,"MEAN_ANOMALY":168.0105,"EPHEMERIS_TYPE":0,"NORAD_CAT_ID":62083,"ELEMENT_SET_NO":999,"REV_AT_EPOCH":8658,"BSTAR":0.00010200409,"MEAN_MOTION_DOT":0.00000596,"MEAN_MOTION_DDOT":0},{"OBJECT_NAME":"KINEIS-5A","OBJECT_ID":"2024-219D","EPOCH":"2026-07-06T07:34:02.517024","CLASSIFICATION_TYPE":"U","MEAN_MOTION":14.72289282,"ECCENTRICITY":0.00031069,"INCLINATION":97.8956,"RA_OF_ASC_NODE":346.0238,"ARG_OF_PERICENTER":234.9081,"MEAN_ANOMALY":125.1835,"EPHEMERIS_TYPE":0,"NORAD_CAT_ID":62084,"ELEMENT_SET_NO":999,"REV_AT_EPOCH":8658,"BSTAR":0.00020126877,"MEAN_MOTION_DOT":0.00001223,"MEAN_MOTION_DDOT":0},{"OBJECT_NAME":"KINEIS-5B","OBJECT_ID":"2024-219E","EPOCH":"2026-07-06T08:06:04.185216","CLASSIFICATION_TYPE":"U","MEAN_MOTION":14.78372322,"ECCENTRICITY":0.00018477,"INCLINATION":98.0081,"RA_OF_ASC_NODE":351.0624,"ARG_OF_PERICENTER":163.3777,"MEAN_ANOMALY":196.7494,"EPHEMERIS_TYPE":0,"NORAD_CAT_ID":62085,"ELEMENT_SET_NO":999,"REV_AT_EPOCH":8683,"BSTAR":0.00015627288,"MEAN_MOTION_DOT":0.00001085,"MEAN_MOTION_DDOT":0},{"OBJECT_NAME":"KINEIS-2C","OBJECT_ID":"2025-028B","EPOCH":"2026-07-06T03:10:35.603328","CLASSIFICATION_TYPE":"U","MEAN_MOTION":14.73411245,"ECCENTRICITY":0.00034863,"INCLINATION":98.1235,"RA_OF_ASC_NODE":241.5462,"ARG_OF_PERICENTER":185.0943,"MEAN_ANOMALY":175.023,"EPHEMERIS_TYPE":0,"NORAD_CAT_ID":62929,"ELEMENT_SET_NO":999,"REV_AT_EPOCH":7540,"BSTAR":0.00027792052,"MEAN_MOTION_DOT":0.00001751,"MEAN_MOTION_DDOT":0},{"OBJECT_NAME":"KINEIS-2D","OBJECT_ID":"2025-028C","EPOCH":"2026-07-06T02:31:48.449568","CLASSIFICATION_TYPE":"U","MEAN_MOTION":14.75750859,"ECCENTRICITY":0.00044555,"INCLINATION":97.9271,"RA_OF_ASC_NODE":239.1868,"ARG_OF_PERICENTER":129.4708,"MEAN_ANOMALY":230.6896,"EPHEMERIS_TYPE":0,"NORAD_CAT_ID":62930,"ELEMENT_SET_NO":999,"REV_AT_EPOCH":7550,"BSTAR":0.00031927319,"MEAN_MOTION_DOT":0.00002136,"MEAN_MOTION_DDOT":0},{"OBJECT_NAME":"KINEIS-2E","OBJECT_ID":"2025-028D","EPOCH":"2026-07-06T03:00:54.057888","CLASSIFICATION_TYPE":"U","MEAN_MOTION":14.77070844,"ECCENTRICITY":0.00021215,"INCLINATION":97.8945,"RA_OF_ASC_NODE":238.3553,"ARG_OF_PERICENTER":101.8962,"MEAN_ANOMALY":258.2487,"EPHEMERIS_TYPE":0,"NORAD_CAT_ID":62931,"ELEMENT_SET_NO":999,"REV_AT_EPOCH":7557,"BSTAR":0.0002418585,"MEAN_MOTION_DOT":0.00001657,"MEAN_MOTION_DDOT":0},{"OBJECT_NAME":"KINEIS-2A","OBJECT_ID":"2025-028E","EPOCH":"2026-07-06T02:38:25.359072","CLASSIFICATION_TYPE":"U","MEAN_MOTION":14.73435359,"ECCENTRICITY":0.00060383,"INCLINATION":98.1292,"RA_OF_ASC_NODE":242.5235,"ARG_OF_PERICENTER":105.4312,"MEAN_ANOMALY":254.7563,"EPHEMERIS_TYPE":0,"NORAD_CAT_ID":62932,"ELEMENT_SET_NO":999,"REV_AT_EPOCH":7539,"BSTAR":0.00026254266,"MEAN_MOTION_DOT":0.00001652,"MEAN_MOTION_DDOT":0},{"OBJECT_NAME":"KINEIS-2B","OBJECT_ID":"2025-028G","EPOCH":"2026-07-06T03:43:36.446016","CLASSIFICATION_TYPE":"U","MEAN_MOTION":14.73436169,"ECCENTRICITY":0.00050422,"INCLINATION":97.9658,"RA_OF_ASC_NODE":239.6727,"ARG_OF_PERICENTER":93.8417,"MEAN_ANOMALY":266.3368,"EPHEMERIS_TYPE":0,"NORAD_CAT_ID":62934,"ELEMENT_SET_NO":999,"REV_AT_EPOCH":7545,"BSTAR":0.00023938335,"MEAN_MOTION_DOT":0.00001504,"MEAN_MOTION_DDOT":0},{"OBJECT_NAME":"KINEIS-4E","OBJECT_ID":"2025-056A","EPOCH":"2026-07-06T06:41:06.069408","CLASSIFICATION_TYPE":"U","MEAN_MOTION":14.72285536,"ECCENTRICITY":0.00030858,"INCLINATION":97.906,"RA_OF_ASC_NODE":310.6461,"ARG_OF_PERICENTER":100.7621,"MEAN_ANOMALY":259.3934,"EPHEMERIS_TYPE":0,"NORAD_CAT_ID":63300,"ELEMENT_SET_NO":999,"REV_AT_EPOCH":6993,"BSTAR":0.00026303135,"MEAN_MOTION_DOT":0.00001614,"MEAN_MOTION_DDOT":0},{"OBJECT_NAME":"KINEIS-4C","OBJECT_ID":"2025-056B","EPOCH":"2026-07-06T06:59:06.961920","CLASSIFICATION_TYPE":"U","MEAN_MOTION":14.72307091,"ECCENTRICITY":0.00022136,"INCLINATION":97.9113,"RA_OF_ASC_NODE":310.901,"ARG_OF_PERICENTER":251.1134,"MEAN_ANOMALY":108.9834,"EPHEMERIS_TYPE":0,"NORAD_CAT_ID":63301,"ELEMENT_SET_NO":999,"REV_AT_EPOCH":6994,"BSTAR":0.00026439276,"MEAN_MOTION_DOT":0.00001623,"MEAN_MOTION_DDOT":0},{"OBJECT_NAME":"KINEIS-4D","OBJECT_ID":"2025-056C","EPOCH":"2026-07-06T07:04:30.576576","CLASSIFICATION_TYPE":"U","MEAN_MOTION":14.72409344,"ECCENTRICITY":0.00010227,"INCLINATION":97.9034,"RA_OF_ASC_NODE":310.885,"ARG_OF_PERICENTER":270.5561,"MEAN_ANOMALY":89.553,"EPHEMERIS_TYPE":0,"NORAD_CAT_ID":63302,"ELEMENT_SET_NO":999,"REV_AT_EPOCH":6994,"BSTAR":0.0002598839,"MEAN_MOTION_DOT":0.00001598,"MEAN_MOTION_DDOT":0},{"OBJECT_NAME":"KINEIS-4A","OBJECT_ID":"2025-056D","EPOCH":"2026-07-06T07:54:37.103904","CLASSIFICATION_TYPE":"U","MEAN_MOTION":14.72316857,"ECCENTRICITY":0.00014392,"INCLINATION":97.9129,"RA_OF_ASC_NODE":310.8613,"ARG_OF_PERICENTER":168.9266,"MEAN_ANOMALY":191.1974,"EPHEMERIS_TYPE":0,"NORAD_CAT_ID":63303,"ELEMENT_SET_NO":999,"REV_AT_EPOCH":6994,"BSTAR":0.00026418295,"MEAN_MOTION_DOT":0.00001622,"MEAN_MOTION_DDOT":0},{"OBJECT_NAME":"KINEIS-4B","OBJECT_ID":"2025-056E","EPOCH":"2026-07-06T07:29:41.421408","CLASSIFICATION_TYPE":"U","MEAN_MOTION":14.72311236,"ECCENTRICITY":0.00045931,"INCLINATION":97.9141,"RA_OF_ASC_NODE":310.9006,"ARG_OF_PERICENTER":223.7725,"MEAN_ANOMALY":136.3119,"EPHEMERIS_TYPE":0,"NORAD_CAT_ID":63304,"ELEMENT_SET_NO":999,"REV_AT_EPOCH":6993,"BSTAR":0.00025945682,"MEAN_MOTION_DOT":0.00001592,"MEAN_MOTION_DDOT":0}]}
